FLOCK 4BE-27            
1 60513U 24149AX  26068.75339182  .00011439  00000+0  36576-3 0  9992
2 60513  97.3862 150.6783 0002732 305.8980  54.2008 15.32593322 86906
STARLINK-33682          
1 63433U 25069A   26068.49082582  .00027162  00000+0  92581-3 0  9996
2 63433  53.1574 143.4505 0001227  74.1805 285.9331 15.30201384 53371
